ONEWEB-0700             
1 61606U 24188N   26127.21320257  .00000668  00000+0  18772-2 0  9998
2 61606  87.8873  44.3217 0001234  68.1505 291.9754 13.10375406 77931
ONEWEB-0701             
1 61607U 24188P   26127.22980086  .00000500  00000+0  13972-2 0  9994
2 61607  87.8849  44.4149 0001455  52.7551 307.3709 13.10371412 77941
ONEWEB-0702             
1 61608U 24188Q   26127.27705469 -.00000116  00000+0 -36332-3 0  9991
2 61608  87.8935  29.1161 0000978  51.6991 308.4225 13.11413813 79127
ONEWEB-0704             
1 61609U 24188R   26127.21819147  .00000814  00000+0  22948-2 0  9995
2 61609  87.8873  44.4019 0000849  59.9442 300.1770 13.10372769 77923
ONEWEB-0705             
1 61610U 24188S   26127.22317453  .00000970  00000+0  27415-2 0  9998
2 61610  87.8864  44.4085 0001112 113.6697 246.4547 13.10372330 70091
ONEWEB-0706             
1 61611U 24188T   26127.28457670  .00000546  00000+0  15290-2 0  9998
2 61611  87.8860  44.4040 0001236  75.3285 284.7979 13.10377007 78024
ONEWEB-0707             
1 61612U 24188U   26127.21486894  .00000669  00000+0  18811-2 0  9990
2 61612  87.8863  44.4096 0001297  72.8892 287.2377 13.10374521 77951
ONEWEB-0708             
1 61613U 24188V   26127.23312443  .00000259  00000+0  70551-3 0  9996
2 61613  87.8850  44.4286 0001760  98.4303 261.7024 13.10369491 77939
