[{"OBJECT_NAME":"ONEWEB-0700","OBJECT_ID":"2024-188N","EPOCH":"2026-05-07T05:07:00.702048","MEAN_MOTION":13.10375406,"ECCENTRICITY":0.0001234,"INCLINATION":87.8873,"RA_OF_ASC_NODE":44.3217,"ARG_OF_PERICENTER":68.1505,"MEAN_ANOMALY":291.9754,"EPHEMERIS_TYPE":0,"CLASSIFICATION_TYPE":"U","NORAD_CAT_ID":61606,"ELEMENT_SET_NO":999,"REV_AT_EPOCH":7793,"BSTAR":0.0018772,"MEAN_MOTION_DOT":6.68e-06,"MEAN_MOTION_DDOT":0.0},{"OBJECT_NAME":"ONEWEB-0701","OBJECT_ID":"2024-188P","EPOCH":"2026-05-07T05:30:54.794304","MEAN_MOTION":13.10371412,"ECCENTRICITY":0.0001455,"INCLINATION":87.8849,"RA_OF_ASC_NODE":44.4149,"ARG_OF_PERICENTER":52.7551,"MEAN_ANOMALY":307.3709,"EPHEMERIS_TYPE":0,"CLASSIFICATION_TYPE":"U","NORAD_CAT_ID":61607,"ELEMENT_SET_NO":999,"REV_AT_EPOCH":7794,"BSTAR":0.0013972000000000001,"MEAN_MOTION_DOT":5e-06,"MEAN_MOTION_DDOT":0.0},{"OBJECT_NAME":"ONEWEB-0702","OBJECT_ID":"2024-188Q","EPOCH":"2026-05-07T06:38:57.525216","MEAN_MOTION":13.11413813,"ECCENTRICITY":9.78e-05,"INCLINATION":87.8935,"RA_OF_ASC_NODE":29.1161,"ARG_OF_PERICENTER":51.6991,"MEAN_ANOMALY":308.4225,"EPHEMERIS_TYPE":0,"CLASSIFICATION_TYPE":"U","NORAD_CAT_ID":61608,"ELEMENT_SET_NO":999,"REV_AT_EPOCH":7912,"BSTAR":-0.00036332,"MEAN_MOTION_DOT":-1.16e-06,"MEAN_MOTION_DDOT":0.0},{"OBJECT_NAME":"ONEWEB-0704","OBJECT_ID":"2024-188R","EPOCH":"2026-05-07T05:14:11.743008","MEAN_MOTION":13.10372769,"ECCENTRICITY":8.49e-05,"INCLINATION":87.8873,"RA_OF_ASC_NODE":44.4019,"ARG_OF_PERICENTER":59.9442,"MEAN_ANOMALY":300.177,"EPHEMERIS_TYPE":0,"CLASSIFICATION_TYPE":"U","NORAD_CAT_ID":61609,"ELEMENT_SET_NO":999,"REV_AT_EPOCH":7792,"BSTAR":0.0022948,"MEAN_MOTION_DOT":8.14e-06,"MEAN_MOTION_DDOT":0.0},{"OBJECT_NAME":"ONEWEB-0705","OBJECT_ID":"2024-188S","EPOCH":"2026-05-07T05:21:22.279392","MEAN_MOTION":13.1037233,"ECCENTRICITY":0.0001112,"INCLINATION":87.8864,"RA_OF_ASC_NODE":44.4085,"ARG_OF_PERICENTER":113.6697,"MEAN_ANOMALY":246.4547,"EPHEMERIS_TYPE":0,"CLASSIFICATION_TYPE":"U","NORAD_CAT_ID":61610,"ELEMENT_SET_NO":999,"REV_AT_EPOCH":7009,"BSTAR":0.0027415,"MEAN_MOTION_DOT":9.7e-06,"MEAN_MOTION_DDOT":0.0},{"OBJECT_NAME":"ONEWEB-0706","OBJECT_ID":"2024-188T","EPOCH":"2026-05-07T06:49:47.426880","MEAN_MOTION":13.10377007,"ECCENTRICITY":0.0001236,"INCLINATION":87.886,"RA_OF_ASC_NODE":44.404,"ARG_OF_PERICENTER":75.3285,"MEAN_ANOMALY":284.7979,"EPHEMERIS_TYPE":0,"CLASSIFICATION_TYPE":"U","NORAD_CAT_ID":61611,"ELEMENT_SET_NO":999,"REV_AT_EPOCH":7802,"BSTAR":0.0015290000000000002,"MEAN_MOTION_DOT":5.46e-06,"MEAN_MOTION_DDOT":0.0},{"OBJECT_NAME":"ONEWEB-0707","OBJECT_ID":"2024-188U","EPOCH":"2026-05-07T05:09:24.676416","MEAN_MOTION":13.10374521,"ECCENTRICITY":0.0001297,"INCLINATION":87.8863,"RA_OF_ASC_NODE":44.4096,"ARG_OF_PERICENTER":72.8892,"MEAN_ANOMALY":287.2377,"EPHEMERIS_TYPE":0,"CLASSIFICATION_TYPE":"U","NORAD_CAT_ID":61612,"ELEMENT_SET_NO":999,"REV_AT_EPOCH":7795,"BSTAR":0.0018811000000000001,"MEAN_MOTION_DOT":6.69e-06,"MEAN_MOTION_DDOT":0.0},{"OBJECT_NAME":"ONEWEB-0708","OBJECT_ID":"2024-188V","EPOCH":"2026-05-07T05:35:41.950752","MEAN_MOTION":13.10369491,"ECCENTRICITY":0.000176,"INCLINATION":87.885,"RA_OF_ASC_NODE":44.4286,"ARG_OF_PERICENTER":98.4303,"MEAN_ANOMALY":261.7024,"EPHEMERIS_TYPE":0,"CLASSIFICATION_TYPE":"U","NORAD_CAT_ID":61613,"ELEMENT_SET_NO":999,"REV_AT_EPOCH":7793,"BSTAR":0.00070551,"MEAN_MOTION_DOT":2.59e-06,"MEAN_MOTION_DDOT":0.0}]